{"type": "FeatureCollection", "features": [ {"type": "Feature", "properties": {"norad_id": 37477, "name": "FENGYUN 1C DEB", "group": "fengyun-1c-debris", "lat": 38.86250644666537, "lon": -4.498852211893617, "alt_km": 801.0067284679417, "timestamp": "2025-12-24T03:53:29.936782+00:00", "meta": {"OBJECT_NAME": "FENGYUN 1C DEB", "OBJECT_ID": "1999-025EJX", "EPOCH": "2025-12-16T18:06:36.022176", "MEAN_MOTION": 14.19731482, "ECCENTRICITY": 0.00371355, "INCLINATION": 98.6057, "RA_OF_ASC_NODE": 355.3103, "ARG_OF_PERICENTER": 94.8392, "MEAN_ANOMALY": 265.7026, "EPHEMERIS_TYPE": 0, "CLASSIFICATION_TYPE": "U", "NORAD_CAT_ID": 37477, "ELEMENT_SET_NO": 999, "REV_AT_EPOCH": 81971, "BSTAR": 0.00055952668, "MEAN_MOTION_DOT": 1.15e-05, "MEAN_MOTION_DDOT": 0}, "tle": {"line1": "1 37477U 99025EJX 25350.75458359  .00001150  00000+0  55953-3 0  9990", "line2": "2 37477  98.6057 355.3103 0037135  94.8392 265.7026 14.19731482819713"}}, "geometry": {"type": "Point", "coordinates": [-4.498852211893617, 38.86250644666537]}}, {"type": "Feature", "properties": {"norad_id": 37478, "name": "FENGYUN 1C DEB", "group": "fengyun-1c-debris", "lat": 48.7819972106175, "lon": -31.755918925944975, "alt_km": 1415.645157979934, "timestamp": "2025-12-24T03:53:29.936792+00:00", "meta": {"OBJECT_NAME": "FENGYUN 1C DEB", "OBJECT_ID": "1999-025EJY", "EPOCH": "2025-12-23T05:31:28.594848", "MEAN_MOTION": 13.03020761, "ECCENTRICITY": 0.05479168, "INCLINATION": 99.6522, "RA_OF_ASC_NODE": 338.6097, "ARG_OF_PERICENTER": 295.1195, "MEAN_ANOMALY": 59.4029, "EPHEMERIS_TYPE": 0, "CLASSIFICATION_TYPE": "U", "NORAD_CAT_ID": 37478, "ELEMENT_SET_NO": 999, "REV_AT_EPOCH": 56698, "BSTAR": 0.0032489988, "MEAN_MOTION_DOT": 2.046e-05, "MEAN_MOTION_DDOT": 0}, "tle": {"line1": "1 37478U 99025EJY 25357.23019207  .00002046  00000+0  32490-2 0  9991", "line2": "2 37478  99.6522 338.6097 0547916 295.1195  59.4029 13.03020761566980"}}, "geometry": {"type": "Point", "coordinates": [-31.755918925944975, 48.7819972106175]}}, {"type": "Feature", "properties": {"norad_id": 37589, "name": "FENGYUN 1C DEB", "group": "fengyun-1c-debris", "lat": -23.968553970871433, "lon": -95.09536125039422, "alt_km": 889.783181330874, "timestamp": "2025-12-24T03:53:29.936802+00:00", "meta": {"OBJECT_NAME": "FENGYUN 1C DEB", "OBJECT_ID": "1999-025EKH", "EPOCH": "2025-12-22T12:47:20.483808", "MEAN_MOTION": 14.08264276, "ECCENTRICITY": 0.01172304, "INCLINATION": 99.0749, "RA_OF_ASC_NODE": 259.1917, "ARG_OF_PERICENTER": 236.7185, "MEAN_ANOMALY": 122.271, "EPHEMERIS_TYPE": 0, "CLASSIFICATION_TYPE": "U", "NORAD_CAT_ID": 37589, "ELEMENT_SET_NO": 999, "REV_AT_EPOCH": 82722, "BSTAR": 0.0028934456, "MEAN_MOTION_DOT": 5.223e-05, "MEAN_MOTION_DDOT": 0}, "tle": {"line1": "1 37589U 99025EKH 25356.53287597  .00005223  00000+0  28934-2 0  9993", "line2": "2 37589  99.0749 259.1917 0117230 236.7185 122.2710 14.08264276827228"}}, "geometry": {"type": "Point", "coordinates": [-95.09536125039422, -23.968553970871433]}}, {"type": "Feature", "properties": {"norad_id": 37594, "name": "FENGYUN 1C DEB", "group": "fengyun-1c-debris", "lat": -66.50550171717718, "lon": 47.89461621891251, "alt_km": 826.8429551139952, "timestamp": "2025-12-24T03:53:29.936812+00:00", "meta": {"OBJECT_NAME": "FENGYUN 1C DEB", "OBJECT_ID": "1999-025EKN", "EPOCH": "2025-12-23T12:53:53.737728", "MEAN_MOTION": 14.11128547, "ECCENTRICITY": 0.0085286, "INCLINATION": 98.7335, "RA_OF_ASC_NODE": 26.5783, "ARG_OF_PERICENTER": 238.8668, "MEAN_ANOMALY": 120.4117, "EPHEMERIS_TYPE": 0, "CLASSIFICATION_TYPE": "U", "NORAD_CAT_ID": 37594, "ELEMENT_SET_NO": 999, "REV_AT_EPOCH": 77914, "BSTAR": 0.00023559, "MEAN_MOTION_DOT": 3.96e-06, "MEAN_MOTION_DDOT": 0}, "tle": {"line1": "1 37594U 99025EKN 25357.53742752  .00000396  00000+0  23559-3 0  9994", "line2": "2 37594  98.7335  26.5783 0085286 238.8668 120.4117 14.11128547779144"}}, "geometry": {"type": "Point", "coordinates": [47.89461621891251, -66.50550171717718]}}, {"type": "Feature", "properties": {"norad_id": 37595, "name": "FENGYUN 1C DEB", "group": "fengyun-1c-debris", "lat": -9.412450016686657, "lon": 27.207250837838036, "alt_km": 675.950522934223, "timestamp": "2025-12-24T03:53:29.936822+00:00", "meta": {"OBJECT_NAME": "FENGYUN 1C DEB", "OBJECT_ID": "1999-025EKP", "EPOCH": "2025-12-23T19:12:19.083168", "MEAN_MOTION": 14.71564982, "ECCENTRICITY": 0.0028554, "INCLINATION": 99.0458, "RA_OF_ASC_NODE": 208.3187, "ARG_OF_PERICENTER": 332.5627, "MEAN_ANOMALY": 100.7823, "EPHEMERIS_TYPE": 0, "CLASSIFICATION_TYPE": "U", "NORAD_CAT_ID": 37595, "ELEMENT_SET_NO": 999, "REV_AT_EPOCH": 62768, "BSTAR": 0.0037495, "MEAN_MOTION_DOT": 0.00023466, "MEAN_MOTION_DDOT": 0}, "tle": {"line1": "1 37595U 99025EKP 25357.80022087  .00023466  00000+0  37495-2 0  9993", "line2": "2 37595  99.0458 208.3187 0028554 332.5627 100.7823 14.71564982627684"}}, "geometry": {"type": "Point", "coordinates": [27.207250837838036, -9.412450016686657]}}, {"type": "Feature", "properties": {"norad_id": 37600, "name": "FENGYUN 1C DEB", "group": "fengyun-1c-debris", "lat": 20.89877366306053, "lon": 150.8620537586355, "alt_km": 693.0223679695282, "timestamp": "2025-12-24T03:53:29.936835+00:00", "meta": {"OBJECT_NAME": "FENGYUN 1C DEB", "OBJECT_ID": "1999-025EKU", "EPOCH": "2025-12-21T16:44:55.269888", "MEAN_MOTION": 13.82620131, "ECCENTRICITY": 0.03567199, "INCLINATION": 98.9342, "RA_OF_ASC_NODE": 151.9626, "ARG_OF_PERICENTER": 25.2746, "MEAN_ANOMALY": 336.5397, "EPHEMERIS_TYPE": 0, "CLASSIFICATION_TYPE": "U", "NORAD_CAT_ID": 37600, "ELEMENT_SET_NO": 999, "REV_AT_EPOCH": 88611, "BSTAR": 0.0021018419, "MEAN_MOTION_DOT": 3.679e-05, "MEAN_MOTION_DDOT": 0}, "tle": {"line1": "1 37600U 99025EKU 25355.69786192  .00003679  00000+0  21018-2 0  9997", "line2": "2 37600  98.9342 151.9626 0356719  25.2746 336.5397 13.82620131886117"}}, "geometry": {"type": "Point", "coordinates": [150.8620537586355, 20.89877366306053]}}, {"type": "Feature", "properties": {"norad_id": 37683, "name": "FENGYUN 1C DEB", "group": "fengyun-1c-debris", "lat": 66.14352297334807, "lon": -103.04223940836924, "alt_km": 740.12856082917, "timestamp": "2025-12-24T03:53:29.936847+00:00", "meta": {"OBJECT_NAME": "FENGYUN 1C DEB", "OBJECT_ID": "1999-025EKY", "EPOCH": "2025-12-22T12:45:28.700352", "MEAN_MOTION": 13.31943553, "ECCENTRICITY": 0.05857029, "INCLINATION": 98.0031, "RA_OF_ASC_NODE": 274.2271, "ARG_OF_PERICENTER": 100.084, "MEAN_ANOMALY": 76.0427, "EPHEMERIS_TYPE": 0, "CLASSIFICATION_TYPE": "U", "NORAD_CAT_ID": 37683, "ELEMENT_SET_NO": 999, "REV_AT_EPOCH": 29370, "BSTAR": 0.0017018804, "MEAN_MOTION_DOT": 2.128e-05, "MEAN_MOTION_DDOT": 0}, "tle": {"line1": "1 37683U 99025EKY 25356.53158218  .00002128  00000+0  17019-2 0  9998", "line2": "2 37683  98.0031 274.2271 0585702 100.0840  76.0427 13.31943553293709"}}, "geometry": {"type": "Point", "coordinates": [-103.04223940836924, 66.14352297334807]}}, {"type": "Feature", "properties": {"norad_id": 37686, "name": "FENGYUN 1C DEB", "group": "fengyun-1c-debris", "lat": -48.16688460784028, "lon": -174.93616059084593, "alt_km": 1372.9191093024738, "timestamp": "2025-12-24T03:53:29.936858+00:00", "meta": {"OBJECT_NAME": "FENGYUN 1C DEB", "OBJECT_ID": "1999-025ELB", "EPOCH": "2025-12-15T20:02:19.291200", "MEAN_MOTION": 13.35366399, "ECCENTRICITY": 0.03959537, "INCLINATION": 99.0216, "RA_OF_ASC_NODE": 7.9106, "ARG_OF_PERICENTER": 34.5937, "MEAN_ANOMALY": 145.9696, "EPHEMERIS_TYPE": 0, "CLASSIFICATION_TYPE": "U", "NORAD_CAT_ID": 37686, "ELEMENT_SET_NO": 999, "REV_AT_EPOCH": 60668, "BSTAR": 0.00056833835, "MEAN_MOTION_DOT": 4.14e-06, "MEAN_MOTION_DDOT": 0}, "tle": {"line1": "1 37686U 99025ELB 25349.83494550  .00000414  00000+0  56834-3 0  9993", "line2": "2 37686  99.0216   7.9106 0395953  34.5937 145.9696 13.35366399606681"}}, "geometry": {"type": "Point", "coordinates": [-174.93616059084593, -48.16688460784028]}}, {"type": "Feature", "properties": {"norad_id": 37687, "name": "FENGYUN 1C DEB", "group": "fengyun-1c-debris", "lat": 6.513651987507852, "lon": -147.16250670416008, "alt_km": 1164.1728364081082, "timestamp": "2025-12-24T03:53:29.936868+00:00", "meta": {"OBJECT_NAME": "FENGYUN 1C DEB", "OBJECT_ID": "1999-025ELC", "EPOCH": "2025-12-20T21:38:24.171360", "MEAN_MOTION": 13.85399674, "ECCENTRICITY": 0.0333437, "INCLINATION": 98.2039, "RA_OF_ASC_NODE": 29.0329, "ARG_OF_PERICENTER": 336.128, "MEAN_ANOMALY": 146.3028, "EPHEMERIS_TYPE": 0, "CLASSIFICATION_TYPE": "U", "NORAD_CAT_ID": 37687, "ELEMENT_SET_NO": 999, "REV_AT_EPOCH": 83367, "BSTAR": 0.0022813, "MEAN_MOTION_DOT": 3.975e-05, "MEAN_MOTION_DDOT": 0}, "tle": {"line1": "1 37687U 99025ELC 25354.90166865  .00003975  00000+0  22813-2 0  9997", "line2": "2 37687  98.2039  29.0329 0333437 336.1280 146.3028 13.85399674833671"}}, "geometry": {"type": "Point", "coordinates": [-147.16250670416008, 6.513651987507852]}}, {"type": "Feature", "properties": {"norad_id": 37689, "name": "FENGYUN 1C DEB", "group": "fengyun-1c-debris", "lat": -72.11149069509749, "lon": 68.83765329078278, "alt_km": 734.1500431781751, "timestamp": "2025-12-24T03:53:29.936878+00:00", "meta": {"OBJECT_NAME": "FENGYUN 1C DEB", "OBJECT_ID": "1999-025ELE", "EPOCH": "2025-12-16T22:11:39.439392", "MEAN_MOTION": 14.48718217, "ECCENTRICITY": 0.00208957, "INCLINATION": 98.9198, "RA_OF_ASC_NODE": 32.0803, "ARG_OF_PERICENTER": 227.3129, "MEAN_ANOMALY": 132.6303, "EPHEMERIS_TYPE": 0, "CLASSIFICATION_TYPE": "U", "NORAD_CAT_ID": 37689, "ELEMENT_SET_NO": 999, "REV_AT_EPOCH": 57873, "BSTAR": 0.0018942734, "MEAN_MOTION_DOT": 7.118e-05, "MEAN_MOTION_DDOT": 0}, "tle": {"line1": "1 37689U 99025ELE 25350.92476203  .00007118  00000+0  18943-2 0  9999", "line2": "2 37689  98.9198  32.0803 0020895 227.3129 132.6303 14.48718217578736"}}, "geometry": {"type": "Point", "coordinates": [68.83765329078278, -72.11149069509749]}}]}